{"fetched_at": 1775407973.535885, "lines": ["NOAA 1", "1 04793U 70106A   26095.04704449 -.00000035  00000+0  47759-4 0  9995", "2 04793 101.3456 132.9598 0032059 129.6382 259.7060 12.54049759531523", "NOAA 2 (ITOS-D)", "1 06235U 72082A   26095.50273677 -.00000036  00000+0  68625-4 0  9994", "2 06235 102.0138 113.2645 0003725 311.9652 216.7684 12.53212779445847", "NOAA 3", "1 06920U 73086A   26095.54168344 -.00000041  00000+0  38088-4 0  9994", "2 06920 102.2889 108.7817 0006192 257.6287 220.6849 12.40392537372892", "NOAA 4", "1 07529U 74089A   26095.48134395 -.00000045  00000+0  70288-5 0  9999", "2 07529 102.0059 107.5001 0008829 337.8643 185.1886 12.53202294350417", "NOAA 5", "1 09057U 76077A   26095.52299352 -.00000039  00000+0  55612-4 0  9992", "2 09057 102.2991  81.1754 0010091 111.8143   3.6927 12.37829300245488", "TIROS N", "1 11060U 78096A   26095.52923705  .00000239  00000+0  13322-3 0  9990", "2 11060  98.4597 119.8547 0011646  93.4609 266.7900 14.19351228668440", "NOAA 6", "1 11416U 79057A   26095.31826999  .00000421  00000+0  16161-3 0  9994", "2 11416  98.5708 125.3058 0010995 112.3197 247.9155 14.35454954440504", "NOAA 7", "1 12553U 81059A   26095.47877450  .00000072  00000+0  56820-4 0  9996", "2 12553  98.8008 163.2957 0012469 114.5876 245.6600 14.17779232314440", "NOAA 8", "1 13923U 83022A   26095.49706521  .00000201  00000+0  95590-4 0  9993", "2 13923  98.7359 108.3827 0015865 109.9903 250.2988 14.29778083240689", "NOAA 9", "1 15427U 84123A   26095.32608637  .00000158  00000+0  10164-3 0  9992", "2 15427  99.1062 120.2536 0014468 192.3934 178.3709 14.17048377133106", "NOAA 10", "1 16969U 86073A   26095.51070925  .00000194  00000+0  93794-4 0  9995", "2 16969  98.7025  88.8553 0011522 203.9823 281.8830 14.29155694 59032", "NOAA 11", "1 19531U 88089A   26095.42916471  .00000088  00000+0  66369-4 0  9997", "2 19531  98.6139  43.5748 0011645 142.3940 217.8051 14.15827128937189", "NOAA 12", "1 21263U 91032A   26095.47320856  .00000159  00000+0  83561-4 0  9997", "2 21263  98.6181  85.0629 0012623 238.5594 121.4353 14.26726710814591", "NOAA 13", "1 22739U 93050A   26095.47492999  .00000173  00000+0  11426-3 0  9992", "2 22739  98.6975  42.4814 0009188 344.0461  16.0421 14.13645835683102", "NOAA 14", "1 23455U 94089A   26095.48806366  .00000087  00000+0  66687-4 0  9993", "2 23455  98.5067  68.4382 0008429 296.2024  63.8283 14.14661671612922", "NOAA 15", "1 25338U 98030A   26095.48121840  .00000212  00000+0  10432-3 0  9998", "2 25338  98.5131 118.0595 0009957 194.0461 166.0444 14.27124018450929", "NOAA 16", "1 26536U 00055A   26095.48925568  .00000132  00000+0  91058-4 0  9993", "2 26536  98.4678 113.5932 0011093 144.9557 215.2349 14.13906202613452", "NOAA 17", "1 27453U 02032A   26095.47544251  .00000306  00000+0  14685-3 0  9997", "2 27453  98.8589  60.3968 0011199 197.5672 162.5121 14.26205638236624", "NOAA 18", "1 28654U 05018A   26095.50713024  .00000105  00000+0  78892-4 0  9996", "2 28654  98.8123 176.2343 0014159   2.1953 357.9279 14.13716705 76048", "NOAA 19", "1 33591U 09005A   26095.49310020  .00000094  00000+0  73807-4 0  9997", "2 33591  98.9559 166.3027 0012957 232.9978 127.0009 14.13462505884210", "SUOMI NPP", "1 37849U 11061A   26095.45752935  .00000139  00000+0  86939-4 0  9993", "2 37849  98.7904  36.8520 0002055 142.2265 217.9055 14.19501237748122", "NOAA 20 (JPSS-1)", "1 43013U 17073A   26095.47172838  .00000117  00000+0  76482-4 0  9990", "2 43013  98.7725  35.5978 0002041 101.4939 258.6466 14.19543426434155", "NOAA 21 (JPSS-2)", "1 54234U 22150A   26095.50613422  .00000150  00000+0  92135-4 0  9992", "2 54234  98.7586  35.4698 0002623  59.6662 300.4773 14.19559749176232"]}